ARIANE 5 R/B
1 40665U 15026C   20077.37059105 +.00000640 +00000-0 +13027-3 0  9997
2 40665 004.2004 351.7005 7181264 253.2864 022.5404 02.41066495041462
ARIANE 5 DEB (SYLDA)
1 40666U 15026D   20077.18147704 +.00011886 +00000-0 +22801-2 0  9993
2 40666 003.9473 116.9623 6469361 354.4124 000.9840 03.36589730051298
DMSP 5D-2 F13 DEB
1 40672U 95015FL  20077.28204813  .00001433  00000-0  64661-3 0  9990
2 40672  98.7638  91.4233 0005844 118.4809 241.6959 14.23741977257809
DMSP 5D-2 F13 DEB
1 40673U 95015FM  20077.23944792 +.00000078 +00000-0 +57371-4 0  9998
2 40673 098.7647 086.6558 0024889 127.0469 233.2989 14.19963345256522
DMSP 5D-2 F13 DEB
1 40674U 95015FN  20077.35845166  .00002599  00000-0  97121-3 0  9993
2 40674  98.7116 108.8667 0019344  39.0422 321.2154 14.32612367252611
DMSP 5D-2 F13 DEB
1 40675U 95015FP  20076.48315624 +.00000752 +00000-0 +37317-3 0  9998
2 40675 098.7852 085.4430 0004823 143.0153 217.1357 14.20155625255088
DMSP 5D-2 F13 DEB
1 40676U 95015FQ  20077.84393387  .00000704  00000-0  35227-3 0  9997
2 40676  98.7855  86.5332 0006820 157.8313 202.3159 14.19890316250919
DMSP 5D-2 F13 DEB
1 40677U 95015FR  20070.80951631 +.00000085 +00000-0 +54212-4 0  9997
2 40677 098.6985 085.3054 0051934 099.3016 261.4041 14.24988928254123
DMSP 5D-2 F13 DEB
1 40678U 95015FS  20076.26091134  .00000860  00000-0  38013-3 0  9998
2 40678  98.7216  92.6337 0027155  84.7044 275.7233 14.25630360252094
DMSP 5D-2 F13 DEB
1 40679U 95015FT  20075.53000437  .00001491  00000-0  59483-3 0  9999
2 40679  98.7367 108.1191 0029337  87.2386 273.2153 14.29792775251708
DMSP 5D-2 F13 DEB
1 40680U 95015FU  20076.84843259 +.00001772 +00000-0 +71554-3 0  9998
2 40680 098.7295 105.0383 0018954 048.7009 311.5801 14.29087116254510
DMSP 5D-2 F13 DEB
1 40681U 95015FV  20077.46830394 +.00000611 +00000-0 +31380-3 0  9998
2 40681 098.7925 084.0221 0003640 168.7146 191.4112 14.18997713255555
FENGYUN 1C DEB
1 40684U 99025EWQ 20077.12394660 +.00000316 +00000-0 +20184-3 0  9992
2 40684 098.8418 140.7505 0035970 069.7950 290.7083 14.10242931319137
FENGYUN 1C DEB
1 40685U 99025EWR 20077.39806610  .00000510  00000-0  46723-3 0  9998
2 40685  99.4131 142.2876 0177870 184.4004 175.5593 13.80835010269655
FENGYUN 1C DEB
1 40686U 99025EWS 20075.33363309 +.00003184 +00000-0 +62866-3 0  9990
2 40686 099.2283 111.9956 0005994 319.7181 040.3573 14.63260653277372
FENGYUN 1C DEB
1 40689U 99025EWV 20075.34476496 +.00000334 +00000-0 +36057-3 0  9993
2 40689 099.0615 115.8669 0332358 119.4194 244.0554 13.57684478263602
FENGYUN 1C DEB
1 40690U 99025EWW 20076.13447632  .00000112  00000-0  11687-3 0  9999
2 40690  99.3565  39.6017 0096841  46.9271 313.9944 13.93026383321491
FENGYUN 1C DEB
1 40691U 99025EWX 20074.88914385 -.00000002 +00000-0 +33544-4 0  9990
2 40691 099.3195 107.8373 0129931 214.8181 144.4424 13.88946108262929
FENGYUN 1C DEB
1 40692U 99025EWY 20075.10963713 +.00000706 +00000-0 +45691-3 0  9991
2 40692 099.2130 189.3909 0097701 354.0414 005.9582 14.03886507267647
FENGYUN 1C DEB
1 40693U 99025EWZ 20074.56441071 +.00000871 +00000-0 +97756-3 0  9991
2 40693 098.9284 357.9504 0300615 122.1228 240.9463 13.55523539297423
FENGYUN 1C DEB
1 40696U 99025EXC 20075.80957506 -.00000118  00000-0 -53450-4 0  9997
2 40696  98.9483 101.2767 0080998   9.9878 350.2872 13.95574679535362
SENTINEL 2A
1 40697U 15028A   20078.42425351  .00000012  00000-0  21390-4 0  9997
2 40697  98.5663 153.9443 0001261  91.1284 269.0041 14.30817689247449
AVUM R/B
1 40698U 15028B   20077.50594326  .00000925  00000-0  45010-4 0  9993
2 40698  98.6363   2.3229 0255905 319.0698  39.1553 14.97620252258519
COSMOS 2506
1 40699U 15029A   20078.41700892 -.00000012  00000-0  80086-5 0  9994
2 40699  98.3814 130.8470 0010927  49.1506 311.0636 14.54201552251355
GAOFEN 8
1 40701U 15030A   20078.43200784  .00000863  00000-0  39154-4 0  9999
2 40701  97.4579 201.3861 0012252 104.9283 328.0462 15.23469303263388
METEOR 2-11 DEB
1 40703U 84072E   20076.65641158 +.00000642 +00000-0 +52057-3 0  9990
2 40703 082.5269 052.6300 0018379 344.3484 015.7108 13.88642539251641
METEOR 2-11 DEB
1 40704U 84072F   20076.26603785 +.00000611 +00000-0 +49245-3 0  9993
2 40704 082.5236 051.8827 0024463 347.3179 012.7365 13.88862160249515
METEOR 2-11 DEB
1 40705U 84072G   20077.35983450 +.00000459 +00000-0 +36701-3 0  9998
2 40705 082.5239 050.8542 0025831 353.3443 006.7372 13.88856216269713
METEOR 2-11 DEB
1 40706U 84072H   20076.21729467  .00000264  00000-0  20615-3 0  9990
2 40706  82.5255  52.8196 0017833 343.5288  16.5293 13.88715507271430
METEOR 2-11 DEB
1 40707U 84072J   20077.64088526  .00000691  00000-0  55372-3 0  9995
2 40707  82.5272  49.7064 0021584  17.4342 342.7557 13.89366990271824
METEOR 2-11 DEB
1 40708U 84072K   20077.62896707  .00000959  00000-0  78364-3 0  9995
2 40708  82.5218  50.1212 0010694   5.9023 354.2263 13.88700698256443
METEOR 2-11 DEB
1 40709U 84072L   20076.20397415 +.00000545 +00000-0 +43056-3 0  9992
2 40709 082.5240 049.1995 0023628 311.1389 048.7735 13.89848382525692
METEOR 2-21 DEB
1 40711U 93055D   20075.28545887 +.00000780 +00000-0 +55732-3 0  9996
2 40711 082.5435 270.8835 0016643 013.4773 346.6835 13.96048415781327
METEOR 2-21 DEB
1 40712U 93055E   20075.30536223 +.00000807 +00000-0 +60786-3 0  9999
2 40712 082.5453 284.1510 0018437 072.0464 288.2709 13.93123913361539
DMC 3-FM1
1 40715U 15032A   20077.52058937 -.00000051  00000-0 -14679-6 0  9994
2 40715  97.9434 333.1502 0016189 154.1953 206.0032 14.73687169252111
DMC 3-FM2
1 40716U 15032B   20078.56134530  .00000001  00000-0  77572-5 0  9997
2 40716  97.9457 334.4968 0013230 158.4848 201.6918 14.73686497252275
DMC 3-FM3
1 40717U 15032C   20078.51642654  .00000001  00000-0  78496-5 0  9990
2 40717  97.9467 335.1633 0017026 152.7317 207.4782 14.73692485252265
CARBONITE 1
1 40718U 15032D   20078.47701351  .00000108  00000-0  23413-4 0  9992
2 40718  97.8512 322.2451 0017408 140.0668 220.1827 14.74784068252402
DEORBITSAIL
1 40719U 15032E   20078.17793277  .00000326  00000-0  53425-4 0  9996
2 40719  97.8813 329.0159 0017070 138.8151 221.4351 14.76934164252620
PSLV R/B
1 40720U 15032F   20077.49652495  .00000048  00000-0  13372-4 0  9996
2 40720  98.0173 355.5249 0003836 294.2920  65.7891 14.80002011253153
DMSP 5D-2 F13 DEB
1 40721U 95015FW  20076.85577888 +.00001838 +00000-0 +70727-3 0  9991
2 40721 098.7005 105.0325 0027582 047.8408 312.5112 14.31376845249457
NAVSTAR 74 (USA 262)
1 40730U 15033A   20076.72646951 -.00000108 +00000-0 +00000-0 0  9991
2 40730 055.5751 359.6698 0053171 349.4792 010.4193 02.00567799034218
ATLAS 5 CENTAUR R/B
1 40731U 15033B   20075.20218593 -.00000103  00000-0  00000+0 0  9995
2 40731  56.0402   6.1836 0226627 320.2766  38.0893  1.90865674 32539
METEOSAT 11 (MSG 4)
1 40732U 15034A   20077.74364611 -.00000027  00000-0  00000+0 0  9996
2 40732   0.5262 225.7433 0000110  32.6259 184.9029  1.00268032 17146
STARONE C4
1 40733U 15034B   20077.44251880 -.00000287  00000-0  00000+0 0  9995
2 40733   0.0393  54.4471 0002873 315.1840 255.1234  1.00271436 17139
ARIANE 5 R/B
1 40734U 15034C   20077.68420573  .00000328  00000-0  12196-3 0  9997
2 40734   3.9950  87.4814 7248910 155.7962 271.4495  2.30512698 39149
ARIANE 5 DEB (SYLDA)
1 40735U 15034D   20077.85343194  .00031117  00000-0  57373-2 0  9995
2 40735   4.1773   1.2289 6903264 341.8312   2.4658  2.77609322 43489
WGS 7 (USA 263)
1 40746U 15036A   20077.56320122 -.00000004 +00000-0 +00000-0 0  9998
2 40746 000.0106 167.1248 0000056 269.3619 116.8620 01.00271817016992
BD-18
1 40748U 15037A   20077.47697147 -.00000107  00000-0  00000+0 0  9998
2 40748  55.9116  19.4512 0005683 338.5839 248.8831  1.86232037 31601
BD-19
1 40749U 15037B   20077.86966262 -.00000109  00000-0  00000+0 0  9991
2 40749  55.9139  19.4253 0007496 309.7854 317.8771  1.86232312 31606
CZ-3B R/B
1 40750U 15037C   20077.48253731 -.00000067 +00000-0 +90514-4 0  9998
2 40750 055.0041 134.4095 5438424 025.8967 353.4866 04.79540494080599
YZ-1 R/B
1 40751U 15037D   20077.41311413 -.00000084  00000-0  00000+0 0  9999
2 40751  56.1792  36.4403 0940172  46.2725 321.0914  1.56591068 26580
DELTA 1 DEB
1 40752U 76077FV  20078.15937237 -.00000011  00000-0  42665-3 0  9998
2 40752 102.2252 159.2486 0563286 341.8406  41.7271 11.37532171262480
DELTA 1 DEB
1 40754U 76077FX  20078.12071303 -.00000023  00000-0  18373-3 0  9992
2 40754 102.1939  43.1373 0093212 211.6418 147.9011 12.25044558724347
DELTA 1 DEB
1 40755U 76077FY  20070.14110368 -.00000018  00000-0  18073-3 0  9993
2 40755 101.7465  47.7756 0015545 208.9095 151.1112 12.44496589698115
DELTA 1 DEB
1 40756U 76077FZ  20078.19610969 -.00000024  00000-0  17360-3 0  9994
2 40756 102.2353  49.6396 0077433 110.8250 262.7099 12.25924357676866
DELTA 1 DEB
1 40757U 76077GA  20076.17391650 +.00000035 +00000-0 +49328-3 0  9994
2 40757 101.6094 035.4698 0005097 249.2027 122.1423 12.54306731290387
DELTA 1 DEB
1 40758U 76077GB  20075.69643553 +.00000002 +00000-0 +41284-3 0  9990
2 40758 102.2016 044.0656 0088223 209.2111 326.9388 12.25266673282283
DELTA 1 DEB
1 40759U 76077GC  20075.65898203  .00000047  00000-0  42487-3 0  9996
2 40759 102.1639  29.3537 0293369  70.9399 292.3209 12.66215555695822
DELTA 1 DEB
1 40761U 76077GE  20077.35551575  .00000049  00000-0  95374-3 0  9991
2 40761 102.2941  52.3532 0176829 335.8599  23.4236 12.10631567 70171
DELTA 1 DEB
1 40762U 76077GF  20076.71509000 +.00000249 +00000-0 +37867-2 0  9991
2 40762 102.3774 006.7747 0328373 194.0215 165.1521 11.83192183269942
DELTA 1 DEB
1 40763U 76077GG  20077.85027060  .00000149  00000-0  11494-2 0  9996
2 40763 101.3904  83.2169 0025060 357.6338   2.4616 12.57336367805169
DELTA 1 DEB
1 40764U 76077GH  20077.68250886 -.00000004  00000-0  29933-3 0  9991
2 40764 101.8799  50.6841 0001167 356.3887   3.7169 12.40560910618770
